{"fetched_at":"2026-03-30T06:02:59Z","count":15439,"tles":[{"name":"STARLINK-35140","line1":"1 65501U 25198K   26087.63679791 -.00005351  00000+0 -16876-3 0  9999","line2":"2 65501  53.1598 182.7976 0001286  54.4678 305.6442 15.30180729 31522","category":"Starlink"}]}