{
  "norad_id": 65501,
  "name": "STARLINK-35140",
  "history": [
    {
      "epoch": "2026-03-28T15:16:59.339424Z",
      "apogee_km": 476.1539582313935,
      "perigee_km": 474.39126127976397,
      "latitude_deg": -4.030038851757291e-05,
      "longitude_deg": 127.49592988958433,
      "height_km": 475.65876950420414,
      "semi_major_axis_km": 6853.4096097555785,
      "eccentricity": 0.0001286,
      "inclination_deg": 53.1598,
      "raan_deg": 182.7976,
      "arg_perigee_deg": 54.4678,
      "mean_anomaly_deg": 305.6442,
      "mean_motion_rev_day": 15.30180729
    }
  ]
}